[{"OBJECT_NAME":"STARLINK-32386","OBJECT_ID":"2024-171P","EPOCH":"2026-03-09T21:17:51.302976","MEAN_MOTION":15.30173037,"ECCENTRICITY":0.00012271,"INCLINATION":53.1621,"RA_OF_ASC_NODE":321.178,"ARG_OF_PERICENTER":101.7813,"MEAN_ANOMALY":258.3326,"EPHEMERIS_TYPE":0,"CLASSIFICATION_TYPE":"U","NORAD_CAT_ID":61213,"ELEMENT_SET_NO":999,"REV_AT_EPOCH":8240,"BSTAR":-9.5501575e-5,"MEAN_MOTION_DOT":-3.184e-5,"MEAN_MOTION_DDOT":0},{"OBJECT_NAME":"SCS-01 M","OBJECT_ID":"2025-100M","EPOCH":"2026-03-09T23:50:15.541152","MEAN_MOTION":15.31880861,"ECCENTRICITY":0.00078021,"INCLINATION":97.3725,"RA_OF_ASC_NODE":145.6908,"ARG_OF_PERICENTER":292.3826,"MEAN_ANOMALY":67.6588,"EPHEMERIS_TYPE":0,"CLASSIFICATION_TYPE":"U","NORAD_CAT_ID":63993,"ELEMENT_SET_NO":999,"REV_AT_EPOCH":4565,"BSTAR":0.0012010051,"MEAN_MOTION_DOT":0.00037061,"MEAN_MOTION_DDOT":0}]
